[{"OBJECT_NAME":"HAWK-11B","OBJECT_ID":"2024-247C","EPOCH":"2026-03-09T10:44:06.809856","MEAN_MOTION":15.2884707,"ECCENTRICITY":0.00046902,"INCLINATION":45.0161,"RA_OF_ASC_NODE":115.761,"ARG_OF_PERICENTER":333.0326,"MEAN_ANOMALY":27.0314,"EPHEMERIS_TYPE":0,"CLASSIFICATION_TYPE":"U","NORAD_CAT_ID":62379,"ELEMENT_SET_NO":999,"REV_AT_EPOCH":6773,"BSTAR":0.00032841927,"MEAN_MOTION_DOT":9.093e-5,"MEAN_MOTION_DDOT":0},{"OBJECT_NAME":"STARLINK-32828","OBJECT_ID":"2025-034S","EPOCH":"2026-03-09T22:25:56.941248","MEAN_MOTION":15.30200145,"ECCENTRICITY":5.229e-5,"INCLINATION":53.1583,"RA_OF_ASC_NODE":269.8138,"ARG_OF_PERICENTER":95.233,"MEAN_ANOMALY":264.8731,"EPHEMERIS_TYPE":0,"CLASSIFICATION_TYPE":"U","NORAD_CAT_ID":63045,"ELEMENT_SET_NO":999,"REV_AT_EPOCH":5894,"BSTAR":0.00085028242,"MEAN_MOTION_DOT":0.00024908,"MEAN_MOTION_DDOT":0}]
